{
  "type": "FeatureCollection",
  "features": [
    {
      "type": "Feature",
      "properties": {
        "norad_id": 34389,
        "name": "COSMOS 2251 DEB",
        "group": "cosmos-2251-debris",
        "lat": 13.910868189923395,
        "lon": 63.80683236491494,
        "alt_km": 774.0631786508975,
        "timestamp": "2025-12-13T18:50:04.824535+00:00",
        "meta_object_name": "COSMOS 2251 DEB",
        "meta_object_id": "1993-036QE",
        "meta_epoch": "2025-12-13T03:46:35.393376",
        "meta_mean_motion": 14.41535601,
        "meta_eccentricity": 0.00289398,
        "meta_inclination": 74.0193,
        "meta_ra_of_asc_node": 249.0398,
        "meta_arg_of_pericenter": 0.9802,
        "meta_mean_anomaly": 149.6236,
        "meta_ephemeris_type": 0,
        "meta_classification_type": "U",
        "meta_norad_cat_id": 34389,
        "meta_element_set_no": 999,
        "meta_rev_at_epoch": 88018,
        "meta_bstar": 0.00060623961,
        "meta_mean_motion_dot": 1.954e-05,
        "meta_mean_motion_ddot": 0,
        "tle_line1": "1 34389U 93036QE  25347.15735409  .00001954  00000+0  60624-3 0  9992",
        "tle_line2": "2 34389  74.0193 249.0398 0028939   0.9802 149.6236 14.41535601880184"
      },
      "geometry": {
        "type": "Point",
        "coordinates": [
          63.80683236491494,
          13.910868189923395
        ]
      }
    },
    {
      "type": "Feature",
      "properties": {
        "norad_id": 34396,
        "name": "COSMOS 2251 DEB",
        "group": "cosmos-2251-debris",
        "lat": -31.953422159000265,
        "lon": -47.71779028045707,
        "alt_km": 649.935847056573,
        "timestamp": "2025-12-13T18:50:04.824546+00:00",
        "meta_object_name": "COSMOS 2251 DEB",
        "meta_object_id": "1993-036QM",
        "meta_epoch": "2025-12-12T19:45:45.535680",
        "meta_mean_motion": 14.74426427,
        "meta_eccentricity": 0.00059552,
        "meta_inclination": 74.0292,
        "meta_ra_of_asc_node": 123.8692,
        "meta_arg_of_pericenter": 164.5248,
        "meta_mean_anomaly": 348.071,
        "meta_ephemeris_type": 0,
        "meta_classification_type": "U",
        "meta_norad_cat_id": 34396,
        "meta_element_set_no": 999,
        "meta_rev_at_epoch": 88347,
        "meta_bstar": 0.0033309359,
        "meta_mean_motion_dot": 0.00022162,
        "meta_mean_motion_ddot": 0,
        "tle_line1": "1 34396U 93036QM  25346.82344370  .00022162  00000+0  33309-2 0  9999",
        "tle_line2": "2 34396  74.0292 123.8692 0005955 164.5248 348.0710 14.74426427883470"
      },
      "geometry": {
        "type": "Point",
        "coordinates": [
          -47.71779028045707,
          -31.953422159000265
        ]
      }
    },
    {
      "type": "Feature",
      "properties": {
        "norad_id": 34400,
        "name": "COSMOS 2251 DEB",
        "group": "cosmos-2251-debris",
        "lat": 42.70365712008446,
        "lon": -174.34677879767762,
        "alt_km": 403.2118459872763,
        "timestamp": "2025-12-13T18:50:04.824556+00:00",
        "meta_object_name": "COSMOS 2251 DEB",
        "meta_object_id": "1993-036QR",
        "meta_epoch": "2025-12-13T04:20:54.630240",
        "meta_mean_motion": 15.53729473,
        "meta_eccentricity": 0.00048669,
        "meta_inclination": 73.9656,
        "meta_ra_of_asc_node": 22.3825,
        "meta_arg_of_pericenter": 267.2655,
        "meta_mean_anomaly": 92.8002,
        "meta_ephemeris_type": 0,
        "meta_classification_type": "U",
        "meta_norad_cat_id": 34400,
        "meta_element_set_no": 999,
        "meta_rev_at_epoch": 89981,
        "meta_bstar": 0.0044351652,
        "meta_mean_motion_dot": 0.00295054,
        "meta_mean_motion_ddot": 0,
        "tle_line1": "1 34400U 93036QR  25347.18118785  .00295054  00000+0  44352-2 0  9996",
        "tle_line2": "2 34400  73.9656  22.3825 0004866 267.2655  92.8002 15.53729473899810"
      },
      "geometry": {
        "type": "Point",
        "coordinates": [
          -174.34677879767762,
          42.70365712008446
        ]
      }
    },
    {
      "type": "Feature",
      "properties": {
        "norad_id": 34409,
        "name": "COSMOS 2251 DEB",
        "group": "cosmos-2251-debris",
        "lat": 40.57307382828826,
        "lon": -40.984367700053035,
        "alt_km": 644.1765496461148,
        "timestamp": "2025-12-13T18:50:04.824567+00:00",
        "meta_object_name": "COSMOS 2251 DEB",
        "meta_object_id": "1993-036RA",
        "meta_epoch": "2025-12-13T07:40:15.100608",
        "meta_mean_motion": 14.58029825,
        "meta_eccentricity": 0.00798627,
        "meta_inclination": 74.0632,
        "meta_ra_of_asc_node": 305.736,
        "meta_arg_of_pericenter": 19.9065,
        "meta_mean_anomaly": 101.8009,
        "meta_ephemeris_type": 0,
        "meta_classification_type": "U",
        "meta_norad_cat_id": 34409,
        "meta_element_set_no": 999,
        "meta_rev_at_epoch": 89201,
        "meta_bstar": 0.00041816741,
        "meta_mean_motion_dot": 1.978e-05,
        "meta_mean_motion_ddot": 0,
        "tle_line1": "1 34409U 93036RA  25347.31961922  .00001978  00000+0  41817-3 0  9993",
        "tle_line2": "2 34409  74.0632 305.7360 0079862  19.9065 101.8009 14.58029825892013"
      },
      "geometry": {
        "type": "Point",
        "coordinates": [
          -40.984367700053035,
          40.57307382828826
        ]
      }
    },
    {
      "type": "Feature",
      "properties": {
        "norad_id": 34410,
        "name": "COSMOS 2251 DEB",
        "group": "cosmos-2251-debris",
        "lat": -47.54865657349771,
        "lon": -119.09749338797513,
        "alt_km": 527.912741116631,
        "timestamp": "2025-12-13T18:50:04.824578+00:00",
        "meta_object_name": "COSMOS 2251 DEB",
        "meta_object_id": "1993-036RB",
        "meta_epoch": "2025-12-13T05:30:15.889248",
        "meta_mean_motion": 15.190182,
        "meta_eccentricity": 0.00214629,
        "meta_inclination": 73.7353,
        "meta_ra_of_asc_node": 260.6978,
        "meta_arg_of_pericenter": 102.0887,
        "meta_mean_anomaly": 51.7382,
        "meta_ephemeris_type": 0,
        "meta_classification_type": "U",
        "meta_norad_cat_id": 34410,
        "meta_element_set_no": 999,
        "meta_rev_at_epoch": 89781,
        "meta_bstar": 0.0039664388,
        "meta_mean_motion_dot": 0.00084505,
        "meta_mean_motion_ddot": 0,
        "tle_line1": "1 34410U 93036RB  25347.22935057  .00084505  00000+0  39664-2 0  9998",
        "tle_line2": "2 34410  73.7353 260.6978 0021462 102.0887  51.7382 15.19018200897817"
      },
      "geometry": {
        "type": "Point",
        "coordinates": [
          -119.09749338797513,
          -47.54865657349771
        ]
      }
    },
    {
      "type": "Feature",
      "properties": {
        "norad_id": 34412,
        "name": "COSMOS 2251 DEB",
        "group": "cosmos-2251-debris",
        "lat": -30.754756029354972,
        "lon": 152.50940214175012,
        "alt_km": 860.3784665907633,
        "timestamp": "2025-12-13T18:50:04.824589+00:00",
        "meta_object_name": "COSMOS 2251 DEB",
        "meta_object_id": "1993-036RD",
        "meta_epoch": "2025-12-13T06:15:24.906816",
        "meta_mean_motion": 14.47145618,
        "meta_eccentricity": 0.01871847,
        "meta_inclination": 73.9483,
        "meta_ra_of_asc_node": 323.6299,
        "meta_arg_of_pericenter": 58.5801,
        "meta_mean_anomaly": 303.351,
        "meta_ephemeris_type": 0,
        "meta_classification_type": "U",
        "meta_norad_cat_id": 34412,
        "meta_element_set_no": 999,
        "meta_rev_at_epoch": 87658,
        "meta_bstar": 0.0022032383,
        "meta_mean_motion_dot": 9.999e-05,
        "meta_mean_motion_ddot": 0,
        "tle_line1": "1 34412U 93036RD  25347.26070494  .00009999  00000+0  22032-2 0  9994",
        "tle_line2": "2 34412  73.9483 323.6299 0187184  58.5801 303.3510 14.47145618876580"
      },
      "geometry": {
        "type": "Point",
        "coordinates": [
          152.50940214175012,
          -30.754756029354972
        ]
      }
    },
    {
      "type": "Feature",
      "properties": {
        "norad_id": 34413,
        "name": "COSMOS 2251 DEB",
        "group": "cosmos-2251-debris",
        "lat": -73.50279715622432,
        "lon": -172.2237801759309,
        "alt_km": 773.7296820902075,
        "timestamp": "2025-12-13T18:50:04.824600+00:00",
        "meta_object_name": "COSMOS 2251 DEB",
        "meta_object_id": "1993-036RE",
        "meta_epoch": "2025-12-13T04:41:10.628160",
        "meta_mean_motion": 14.29105669,
        "meta_eccentricity": 0.00908854,
        "meta_inclination": 74.0312,
        "meta_ra_of_asc_node": 264.0504,
        "meta_arg_of_pericenter": 340.4866,
        "meta_mean_anomaly": 142.8958,
        "meta_ephemeris_type": 0,
        "meta_classification_type": "U",
        "meta_norad_cat_id": 34413,
        "meta_element_set_no": 999,
        "meta_rev_at_epoch": 87137,
        "meta_bstar": 0.0023497473,
        "meta_mean_motion_dot": 6.207e-05,
        "meta_mean_motion_ddot": 0,
        "tle_line1": "1 34413U 93036RE  25347.19526190  .00006207  00000+0  23497-2 0  9991",
        "tle_line2": "2 34413  74.0312 264.0504 0090885 340.4866 142.8958 14.29105669871372"
      },
      "geometry": {
        "type": "Point",
        "coordinates": [
          -172.2237801759309,
          -73.50279715622432
        ]
      }
    }
  ]
}